{
  "type": "FeatureCollection",
  "features": [
    {
      "type": "Feature",
      "properties": {
        "norad_id": 28890,
        "name": "BEIJING 1",
        "group": "dmc",
        "lat": -3.9212465183156406,
        "lon": 109.22624169617873,
        "alt_km": 695.9334317504608,
        "timestamp": "2025-12-07T03:52:32.137219+00:00",
        "meta_object_name": "BEIJING 1",
        "meta_object_id": "2005-043A",
        "meta_epoch": "2025-12-06T13:07:27.602400",
        "meta_mean_motion": 14.63357206,
        "meta_eccentricity": 0.00150335,
        "meta_inclination": 98.2657,
        "meta_ra_of_asc_node": 108.0394,
        "meta_arg_of_pericenter": 160.1212,
        "meta_mean_anomaly": 200.0579,
        "meta_ephemeris_type": 0,
        "meta_classification_type": "U",
        "meta_norad_cat_id": 28890,
        "meta_element_set_no": 999,
        "meta_rev_at_epoch": 7247,
        "meta_bstar": 0.00016757062,
        "meta_mean_motion_dot": 8.18e-06,
        "meta_mean_motion_ddot": 0,
        "tle_line1": "1 28890U 05043A   25340.54684725  .00000818  00000+0  16757-3 0  9999",
        "tle_line2": "2 28890  98.2657 108.0394 0015033 160.1212 200.0579 14.63357206 72476"
      },
      "geometry": {
        "type": "Point",
        "coordinates": [
          109.22624169617873,
          -3.9212465183156406
        ]
      }
    },
    {
      "type": "Feature",
      "properties": {
        "norad_id": 33320,
        "name": "HUANJING 1A (HJ-1A)",
        "group": "dmc",
        "lat": -17.738194459847183,
        "lon": -27.841783694604853,
        "alt_km": 618.7190633287837,
        "timestamp": "2025-12-07T03:52:32.137245+00:00",
        "meta_object_name": "HUANJING 1A (HJ-1A)",
        "meta_object_id": "2008-041A",
        "meta_epoch": "2025-12-06T15:00:16.137792",
        "meta_mean_motion": 14.83365029,
        "meta_eccentricity": 0.00205029,
        "meta_inclination": 97.6535,
        "meta_ra_of_asc_node": 329.1791,
        "meta_arg_of_pericenter": 53.6274,
        "meta_mean_anomaly": 306.6829,
        "meta_ephemeris_type": 0,
        "meta_classification_type": "U",
        "meta_norad_cat_id": 33320,
        "meta_element_set_no": 999,
        "meta_rev_at_epoch": 92985,
        "meta_bstar": 0.00035351491,
        "meta_mean_motion_dot": 2.858e-05,
        "meta_mean_motion_ddot": 0,
        "tle_line1": "1 33320U 08041A   25340.62518678  .00002858  00000+0  35351-3 0  9993",
        "tle_line2": "2 33320  97.6535 329.1791 0020502  53.6274 306.6829 14.83365029929854"
      },
      "geometry": {
        "type": "Point",
        "coordinates": [
          -27.841783694604853,
          -17.738194459847183
        ]
      }
    },
    {
      "type": "Feature",
      "properties": {
        "norad_id": 33321,
        "name": "HUANJING 1B (HJ-1B)",
        "group": "dmc",
        "lat": -35.10828111171651,
        "lon": 147.9900157615575,
        "alt_km": 640.909829199174,
        "timestamp": "2025-12-07T03:52:32.137261+00:00",
        "meta_object_name": "HUANJING 1B (HJ-1B)",
        "meta_object_id": "2008-041B",
        "meta_epoch": "2025-12-06T13:57:16.018560",
        "meta_mean_motion": 14.82797156,
        "meta_eccentricity": 0.00382619,
        "meta_inclination": 97.6394,
        "meta_ra_of_asc_node": 332.8502,
        "meta_arg_of_pericenter": 95.2846,
        "meta_mean_anomaly": 265.2736,
        "meta_ephemeris_type": 0,
        "meta_classification_type": "U",
        "meta_norad_cat_id": 33321,
        "meta_element_set_no": 999,
        "meta_rev_at_epoch": 92986,
        "meta_bstar": 0.0002969466,
        "meta_mean_motion_dot": 2.381e-05,
        "meta_mean_motion_ddot": 0,
        "tle_line1": "1 33321U 08041B   25340.58143540  .00002381  00000+0  29695-3 0  9996",
        "tle_line2": "2 33321  97.6394 332.8502 0038261  95.2846 265.2736 14.82797156929864"
      },
      "geometry": {
        "type": "Point",
        "coordinates": [
          147.9900157615575,
          -35.10828111171651
        ]
      }
    },
    {
      "type": "Feature",
      "properties": {
        "norad_id": 33446,
        "name": "YAOGAN-4",
        "group": "dmc",
        "lat": 49.8672514681782,
        "lon": 100.81687945880121,
        "alt_km": 624.7322434036214,
        "timestamp": "2025-12-07T03:52:32.137274+00:00",
        "meta_object_name": "YAOGAN-4",
        "meta_object_id": "2008-061A",
        "meta_epoch": "2025-12-06T12:43:00.354144",
        "meta_mean_motion": 14.82652178,
        "meta_eccentricity": 0.00141256,
        "meta_inclination": 97.9175,
        "meta_ra_of_asc_node": 270.6901,
        "meta_arg_of_pericenter": 344.238,
        "meta_mean_anomaly": 15.8391,
        "meta_ephemeris_type": 0,
        "meta_classification_type": "U",
        "meta_norad_cat_id": 33446,
        "meta_element_set_no": 999,
        "meta_rev_at_epoch": 91711,
        "meta_bstar": 0.00035047071,
        "meta_mean_motion_dot": 2.776e-05,
        "meta_mean_motion_ddot": 0,
        "tle_line1": "1 33446U 08061A   25340.52986521  .00002776  00000+0  35047-3 0  9990",
        "tle_line2": "2 33446  97.9175 270.6901 0014125 344.2380  15.8391 14.82652178917112"
      },
      "geometry": {
        "type": "Point",
        "coordinates": [
          100.81687945880121,
          49.8672514681782
        ]
      }
    },
    {
      "type": "Feature",
      "properties": {
        "norad_id": 35681,
        "name": "DEIMOS-1",
        "group": "dmc",
        "lat": 53.307510393102376,
        "lon": 131.5426727536333,
        "alt_km": 638.8179223811758,
        "timestamp": "2025-12-07T03:52:32.137286+00:00",
        "meta_object_name": "DEIMOS-1",
        "meta_object_id": "2009-041A",
        "meta_epoch": "2025-12-06T14:36:22.252032",
        "meta_mean_motion": 14.74938257,
        "meta_eccentricity": 0.00026899,
        "meta_inclination": 97.7153,
        "meta_ra_of_asc_node": 141.4978,
        "meta_arg_of_pericenter": 91.6314,
        "meta_mean_anomaly": 268.5204,
        "meta_ephemeris_type": 0,
        "meta_classification_type": "U",
        "meta_norad_cat_id": 35681,
        "meta_element_set_no": 999,
        "meta_rev_at_epoch": 87849,
        "meta_bstar": 0.00020547156,
        "meta_mean_motion_dot": 1.333e-05,
        "meta_mean_motion_ddot": 0,
        "tle_line1": "1 35681U 09041A   25340.60859088  .00001333  00000+0  20547-3 0  9995",
        "tle_line2": "2 35681  97.7153 141.4978 0002689  91.6314 268.5204 14.74938257878493"
      },
      "geometry": {
        "type": "Point",
        "coordinates": [
          131.5426727536333,
          53.307510393102376
        ]
      }
    },
    {
      "type": "Feature",
      "properties": {
        "norad_id": 35683,
        "name": "UK-DMC 2",
        "group": "dmc",
        "lat": 54.88271352995372,
        "lon": 104.89917877563452,
        "alt_km": 637.3623186852001,
        "timestamp": "2025-12-07T03:52:32.137298+00:00",
        "meta_object_name": "UK-DMC 2",
        "meta_object_id": "2009-041C",
        "meta_epoch": "2025-12-06T12:58:38.131968",
        "meta_mean_motion": 14.75601126,
        "meta_eccentricity": 0.00013648,
        "meta_inclination": 97.8563,
        "meta_ra_of_asc_node": 115.619,
        "meta_arg_of_pericenter": 102.9226,
        "meta_mean_anomaly": 257.2136,
        "meta_ephemeris_type": 0,
        "meta_classification_type": "U",
        "meta_norad_cat_id": 35683,
        "meta_element_set_no": 999,
        "meta_rev_at_epoch": 87815,
        "meta_bstar": 0.00031820528,
        "meta_mean_motion_dot": 2.122e-05,
        "meta_mean_motion_ddot": 0,
        "tle_line1": "1 35683U 09041C   25340.54071912  .00002122  00000+0  31821-3 0  9996",
        "tle_line2": "2 35683  97.8563 115.6190 0001364 102.9226 257.2136 14.75601126878152"
      },
      "geometry": {
        "type": "Point",
        "coordinates": [
          104.89917877563452,
          54.88271352995372
        ]
      }
    },
    {
      "type": "Feature",
      "properties": {
        "norad_id": 40715,
        "name": "DMC3-FM1",
        "group": "dmc",
        "lat": -82.02200077922413,
        "lon": -45.515134628917465,
        "alt_km": 618.6226340641097,
        "timestamp": "2025-12-07T03:52:32.137309+00:00",
        "meta_object_name": "DMC3-FM1",
        "meta_object_id": "2015-032A",
        "meta_epoch": "2025-12-06T15:21:22.541472",
        "meta_mean_motion": 14.85424506,
        "meta_eccentricity": 0.00050566,
        "meta_inclination": 97.6703,
        "meta_ra_of_asc_node": 208.0544,
        "meta_arg_of_pericenter": 343.3039,
        "meta_mean_anomaly": 16.8009,
        "meta_ephemeris_type": 0,
        "meta_classification_type": "U",
        "meta_norad_cat_id": 40715,
        "meta_element_set_no": 999,
        "meta_rev_at_epoch": 56132,
        "meta_bstar": 0.00018439769,
        "meta_mean_motion_dot": 1.538e-05,
        "meta_mean_motion_ddot": 0,
        "tle_line1": "1 40715U 15032A   25340.63984423  .00001538  00000+0  18440-3 0  9997",
        "tle_line2": "2 40715  97.6703 208.0544 0005056 343.3039  16.8009 14.85424506561325"
      },
      "geometry": {
        "type": "Point",
        "coordinates": [
          -45.515134628917465,
          -82.02200077922413
        ]
      }
    },
    {
      "type": "Feature",
      "properties": {
        "norad_id": 40716,
        "name": "DMC3-FM2",
        "group": "dmc",
        "lat": 31.94661041139349,
        "lon": 34.82133059120423,
        "alt_km": 614.2190855799554,
        "timestamp": "2025-12-07T03:52:32.137319+00:00",
        "meta_object_name": "DMC3-FM2",
        "meta_object_id": "2015-032B",
        "meta_epoch": "2025-12-06T15:53:46.797216",
        "meta_mean_motion": 14.85425859,
        "meta_eccentricity": 0.00056942,
        "meta_inclination": 97.6761,
        "meta_ra_of_asc_node": 209.5157,
        "meta_arg_of_pericenter": 347.6543,
        "meta_mean_anomaly": 12.4532,
        "meta_ephemeris_type": 0,
        "meta_classification_type": "U",
        "meta_norad_cat_id": 40716,
        "meta_element_set_no": 999,
        "meta_rev_at_epoch": 56132,
        "meta_bstar": 0.00018562048,
        "meta_mean_motion_dot": 1.548e-05,
        "meta_mean_motion_ddot": 0,
        "tle_line1": "1 40716U 15032B   25340.66234719  .00001548  00000+0  18562-3 0  9993",
        "tle_line2": "2 40716  97.6761 209.5157 0005694 347.6543  12.4532 14.85425859561326"
      },
      "geometry": {
        "type": "Point",
        "coordinates": [
          34.82133059120423,
          31.94661041139349
        ]
      }
    },
    {
      "type": "Feature",
      "properties": {
        "norad_id": 40717,
        "name": "DMC3-FM3",
        "group": "dmc",
        "lat": 31.870491253203543,
        "lon": -153.187351793793,
        "alt_km": 607.9398489970654,
        "timestamp": "2025-12-07T03:52:32.137330+00:00",
        "meta_object_name": "DMC3-FM3",
        "meta_object_id": "2015-032C",
        "meta_epoch": "2025-12-06T14:47:51.525312",
        "meta_mean_motion": 14.85417167,
        "meta_eccentricity": 0.00050599,
        "meta_inclination": 97.6815,
        "meta_ra_of_asc_node": 211.1005,
        "meta_arg_of_pericenter": 349.9831,
        "meta_mean_anomaly": 10.1283,
        "meta_ephemeris_type": 0,
        "meta_classification_type": "U",
        "meta_norad_cat_id": 40717,
        "meta_element_set_no": 999,
        "meta_rev_at_epoch": 56132,
        "meta_bstar": 0.00015424314,
        "meta_mean_motion_dot": 1.277e-05,
        "meta_mean_motion_ddot": 0,
        "tle_line1": "1 40717U 15032C   25340.61656858  .00001277  00000+0  15424-3 0  9994",
        "tle_line2": "2 40717  97.6815 211.1005 0005059 349.9831  10.1283 14.85417167561329"
      },
      "geometry": {
        "type": "Point",
        "coordinates": [
          -153.187351793793,
          31.870491253203543
        ]
      }
    }
  ]
}